0 FENGYUN 1C DEB
1 30281U 99025YS  13282.52824234  .00000088  00000-0  78681-4 0  8725
2 30281 099.0226 306.2139 0031062 167.1340 356.3719 14.07526826346213
0 FENGYUN 1C DEB
1 30281U 99025YS  13283.79291346  .00000027  00000-0  42447-4 0  8732
2 30281 099.0222 307.4771 0031116 163.6408 284.5356 14.07527481346396
0 FENGYUN 1C DEB
1 30281U 99025YS  13285.06651140  .00000015  00000-0  35220-4 0  8745
2 30281 099.0218 308.7490 0031167 160.1556 257.9047 14.07527575346570
0 FENGYUN 1C DEB
1 30281U 99025YS  13286.13856021  .00000069  00000-0  67309-4 0  8752
2 30281 099.0214 309.8197 0031200 157.2752 289.9669 14.07527486346728
0 FENGYUN 1C DEB
1 30281U 99025YS  13287.63737959  .00000240  00000-0  16785-3 0  8769
2 30281 099.0211 311.3165 0031290 153.2720 324.4506 14.07527269346935
0 FENGYUN 1C DEB
1 30281U 99025YS  13289.12433368  .00000390  00000-0  25685-3 0  8778
2 30281 099.0209 312.8012 0031332 149.2506 298.8647 14.07527256347143
0 FENGYUN 1C DEB
1 30281U 99025YS  13290.33386625  .00000498  00000-0  32047-3 0  8786
2 30281 099.0209 314.0088 0031361 145.9836 307.5772 14.07527205347311
0 FENGYUN 1C DEB
1 30281U 99025YS  13291.61776755  .00000554  00000-0  35377-3 0  8798
2 30281 099.0209 315.2906 0031405 142.4921 333.1388 14.07527966347490
0 FENGYUN 1C DEB
1 30281U 99025YS  13293.10158229  .00000534  00000-0  34171-3 0  8805
2 30281 099.0209 316.7719 0031442 138.4345 291.6903 14.07529948347701
0 FENGYUN 1C DEB
1 30281U 99025YS  13294.53971343  .00000403  00000-0  26438-3 0  8816
2 30281 099.0210 318.2078 0031477 134.4771 018.7906 14.07532843347906
0 FENGYUN 1C DEB
1 30281U 99025YS  13295.66960971  .00000332  00000-0  22266-3 0  8823
2 30281 099.0210 319.3358 0031511 131.3959 344.0267 14.07534731348063
